[{"OBJECT_NAME":"STARLINK-31089","OBJECT_ID":"2023-200X","EPOCH":"2026-03-09T07:33:09.471744","MEAN_MOTION":15.26736652,"ECCENTRICITY":0.00011772,"INCLINATION":43.0021,"RA_OF_ASC_NODE":170.8996,"ARG_OF_PERICENTER":274.4243,"MEAN_ANOMALY":85.6473,"EPHEMERIS_TYPE":0,"CLASSIFICATION_TYPE":"U","NORAD_CAT_ID":58610,"ELEMENT_SET_NO":999,"REV_AT_EPOCH":12355,"BSTAR":2.9279419e-5,"MEAN_MOTION_DOT":5.26e-6,"MEAN_MOTION_DDOT":0},{"OBJECT_NAME":"KUIPER-00183","OBJECT_ID":"2025-301F","EPOCH":"2026-03-09T22:00:01.999584","MEAN_MOTION":15.28555387,"ECCENTRICITY":0.00143222,"INCLINATION":51.8667,"RA_OF_ASC_NODE":65.0366,"ARG_OF_PERICENTER":58.1585,"MEAN_ANOMALY":99.3056,"EPHEMERIS_TYPE":0,"CLASSIFICATION_TYPE":"U","NORAD_CAT_ID":67138,"ELEMENT_SET_NO":999,"REV_AT_EPOCH":583,"BSTAR":-0.054814766,"MEAN_MOTION_DOT":-0.01408357,"MEAN_MOTION_DDOT":0}]
